FLOCK 4G-1              
1 62666U 25009BK  26068.75951132  .00013534  00000+0  50654-3 0  9995
2 62666  97.4059 151.3158 0003180 323.1401  36.9619 15.27421081 63725
STARLINK-35812          
1 66574U 25268T   26068.14199134  .00029196  00000+0  10661-2 0  9997
2 66574  42.9983 350.3598 0001275 269.6091  90.4615 15.27584612 17875
